{"type": "FeatureCollection", "features": [ {"type": "Feature", "properties": {"norad_id": 37562, "name": "IRIDIUM 33 DEB", "group": "iridium-33-debris", "lat": -14.421465999686825, "lon": 47.71183810888138, "alt_km": 727.2007587533599, "timestamp": "2025-12-01T03:58:49.184577+00:00", "meta": {"OBJECT_NAME": "IRIDIUM 33 DEB", "OBJECT_ID": "1997-051XX", "EPOCH": "2025-11-29T00:05:12.463008", "MEAN_MOTION": 14.56266832, "ECCENTRICITY": 0.00262725, "INCLINATION": 86.3751, "RA_OF_ASC_NODE": 49.588, "ARG_OF_PERICENTER": 151.1631, "MEAN_ANOMALY": 26.2084, "EPHEMERIS_TYPE": 0, "CLASSIFICATION_TYPE": "U", "NORAD_CAT_ID": 37562, "ELEMENT_SET_NO": 999, "REV_AT_EPOCH": 86128, "BSTAR": 0.0012615266, "MEAN_MOTION_DOT": 5.628e-05, "MEAN_MOTION_DDOT": 0, "GROUP": "iridium-33-debris"}, "tle": {"line1": "1 37562U 97051XX  25333.00361647  .00005628  00000+0  12615-2 0  9995", "line2": "2 37562  86.3751  49.5880 0026272 151.1631  26.2084 14.56266832861286"}}, "geometry": {"type": "Point", "coordinates": [47.71183810888138, -14.421465999686825]}}, {"type": "Feature", "properties": {"norad_id": 37565, "name": "IRIDIUM 33 DEB", "group": "iridium-33-debris", "lat": -29.440881032491166, "lon": 12.555500194139874, "alt_km": 735.9440657198538, "timestamp": "2025-12-01T03:58:49.184587+00:00", "meta": {"OBJECT_NAME": "IRIDIUM 33 DEB", "OBJECT_ID": "1997-051YA", "EPOCH": "2025-11-30T19:50:35.818080", "MEAN_MOTION": 14.51437009, "ECCENTRICITY": 0.0015088, "INCLINATION": 86.3508, "RA_OF_ASC_NODE": 14.7673, "ARG_OF_PERICENTER": 118.7864, "MEAN_ANOMALY": 241.4859, "EPHEMERIS_TYPE": 0, "CLASSIFICATION_TYPE": "U", "NORAD_CAT_ID": 37565, "ELEMENT_SET_NO": 999, "REV_AT_EPOCH": 65664, "BSTAR": 0.00052848, "MEAN_MOTION_DOT": 2.132e-05, "MEAN_MOTION_DDOT": 0, "GROUP": "iridium-33-debris"}, "tle": {"line1": "1 37565U 97051YA  25334.82680345  .00002132  00000+0  52848-3 0  9998", "line2": "2 37565  86.3508  14.7673 0015088 118.7864 241.4859 14.51437009656647"}}, "geometry": {"type": "Point", "coordinates": [12.555500194139874, -29.440881032491166]}}, {"type": "Feature", "properties": {"norad_id": 38017, "name": "IRIDIUM 33 DEB", "group": "iridium-33-debris", "lat": 2.58747173627155, "lon": -8.91481648502071, "alt_km": 680.1380951280498, "timestamp": "2025-12-01T03:58:49.184598+00:00", "meta": {"OBJECT_NAME": "IRIDIUM 33 DEB", "OBJECT_ID": "1997-051YD", "EPOCH": "2025-11-30T12:14:46.000896", "MEAN_MOTION": 14.48266092, "ECCENTRICITY": 0.00920833, "INCLINATION": 86.3464, "RA_OF_ASC_NODE": 171.5349, "ARG_OF_PERICENTER": 144.4574, "MEAN_ANOMALY": 216.2812, "EPHEMERIS_TYPE": 0, "CLASSIFICATION_TYPE": "U", "NORAD_CAT_ID": 38017, "ELEMENT_SET_NO": 999, "REV_AT_EPOCH": 61225, "BSTAR": 0.0056253968, "MEAN_MOTION_DOT": 0.00022229, "MEAN_MOTION_DDOT": 0, "GROUP": "iridium-33-debris"}, "tle": {"line1": "1 38017U 97051YD  25334.51025464  .00022229  00000+0  56254-2 0  9995", "line2": "2 38017  86.3464 171.5349 0092083 144.4574 216.2812 14.48266092612253"}}, "geometry": {"type": "Point", "coordinates": [-8.91481648502071, 2.58747173627155]}}, {"type": "Feature", "properties": {"norad_id": 38022, "name": "IRIDIUM 33 DEB", "group": "iridium-33-debris", "lat": -86.041080121675, "lon": -88.01005813828999, "alt_km": 795.9070550500628, "timestamp": "2025-12-01T03:58:49.184608+00:00", "meta": {"OBJECT_NAME": "IRIDIUM 33 DEB", "OBJECT_ID": "1997-051YJ", "EPOCH": "2025-11-28T09:44:56.922432", "MEAN_MOTION": 14.41117224, "ECCENTRICITY": 0.00472697, "INCLINATION": 86.2704, "RA_OF_ASC_NODE": 22.7184, "ARG_OF_PERICENTER": 95.8813, "MEAN_ANOMALY": 264.7777, "EPHEMERIS_TYPE": 0, "CLASSIFICATION_TYPE": "U", "NORAD_CAT_ID": 38022, "ELEMENT_SET_NO": 999, "REV_AT_EPOCH": 68987, "BSTAR": 0.0010376862, "MEAN_MOTION_DOT": 3.406e-05, "MEAN_MOTION_DDOT": 0, "GROUP": "iridium-33-debris"}, "tle": {"line1": "1 38022U 97051YJ  25332.40621438  .00003406  00000+0  10377-2 0  9992", "line2": "2 38022  86.2704  22.7184 0047269  95.8813 264.7777 14.41117224689875"}}, "geometry": {"type": "Point", "coordinates": [-88.01005813828999, -86.041080121675]}}, {"type": "Feature", "properties": {"norad_id": 38028, "name": "IRIDIUM 33 DEB", "group": "iridium-33-debris", "lat": -25.896865601331267, "lon": -172.91198242586435, "alt_km": 730.1263624275098, "timestamp": "2025-12-01T03:58:49.184618+00:00", "meta": {"OBJECT_NAME": "IRIDIUM 33 DEB", "OBJECT_ID": "1997-051YQ", "EPOCH": "2025-11-30T08:45:57.409920", "MEAN_MOTION": 14.46144435, "ECCENTRICITY": 0.0029225, "INCLINATION": 86.326, "RA_OF_ASC_NODE": 5.6482, "ARG_OF_PERICENTER": 160.237, "MEAN_ANOMALY": 199.9972, "EPHEMERIS_TYPE": 0, "CLASSIFICATION_TYPE": "U", "NORAD_CAT_ID": 38028, "ELEMENT_SET_NO": 999, "REV_AT_EPOCH": 65316, "BSTAR": 0.00036999, "MEAN_MOTION_DOT": 1.348e-05, "MEAN_MOTION_DDOT": 0, "GROUP": "iridium-33-debris"}, "tle": {"line1": "1 38028U 97051YQ  25334.36524780  .00001348  00000+0  36999-3 0  9999", "line2": "2 38028  86.3260   5.6482 0029225 160.2370 199.9972 14.46144435653165"}}, "geometry": {"type": "Point", "coordinates": [-172.91198242586435, -25.896865601331267]}}, {"type": "Feature", "properties": {"norad_id": 38228, "name": "IRIDIUM 33 DEB", "group": "iridium-33-debris", "lat": -26.19842804235178, "lon": -124.78011425896332, "alt_km": 764.3211249627102, "timestamp": "2025-12-01T03:58:49.184630+00:00", "meta": {"OBJECT_NAME": "IRIDIUM 33 DEB", "OBJECT_ID": "1997-051ZC", "EPOCH": "2025-11-29T12:36:14.255136", "MEAN_MOTION": 14.27233107, "ECCENTRICITY": 0.00630868, "INCLINATION": 86.2984, "RA_OF_ASC_NODE": 54.0911, "ARG_OF_PERICENTER": 232.1345, "MEAN_ANOMALY": 189.6543, "EPHEMERIS_TYPE": 0, "CLASSIFICATION_TYPE": "U", "NORAD_CAT_ID": 38228, "ELEMENT_SET_NO": 999, "REV_AT_EPOCH": 84593, "BSTAR": 0.00041927733, "MEAN_MOTION_DOT": 1.064e-05, "MEAN_MOTION_DDOT": 0, "GROUP": "iridium-33-debris"}, "tle": {"line1": "1 38228U 97051ZC  25333.52516499  .00001064  00000+0  41928-3 0  9999", "line2": "2 38228  86.2984  54.0911 0063086 232.1345 189.6543 14.27233107845930"}}, "geometry": {"type": "Point", "coordinates": [-124.78011425896332, -26.19842804235178]}}, {"type": "Feature", "properties": {"norad_id": 38241, "name": "IRIDIUM 33 DEB", "group": "iridium-33-debris", "lat": 61.244764669457425, "lon": 2.43405137501236, "alt_km": 701.014132075461, "timestamp": "2025-12-01T03:58:49.184640+00:00", "meta": {"OBJECT_NAME": "IRIDIUM 33 DEB", "OBJECT_ID": "1997-051ZR", "EPOCH": "2025-11-30T19:26:41.153856", "MEAN_MOTION": 14.54747071, "ECCENTRICITY": 0.0005706, "INCLINATION": 86.3236, "RA_OF_ASC_NODE": 355.862, "ARG_OF_PERICENTER": 98.0433, "MEAN_ANOMALY": 262.1422, "EPHEMERIS_TYPE": 0, "CLASSIFICATION_TYPE": "U", "NORAD_CAT_ID": 38241, "ELEMENT_SET_NO": 999, "REV_AT_EPOCH": 60027, "BSTAR": 0.00074755, "MEAN_MOTION_DOT": 3.221e-05, "MEAN_MOTION_DDOT": 0, "GROUP": "iridium-33-debris"}, "tle": {"line1": "1 38241U 97051ZR  25334.81019854  .00003221  00000+0  74755-3 0  9991", "line2": "2 38241  86.3236 355.8620 0005706  98.0433 262.1422 14.54747071600276"}}, "geometry": {"type": "Point", "coordinates": [2.43405137501236, 61.244764669457425]}}, {"type": "Feature", "properties": {"norad_id": 38474, "name": "IRIDIUM 33 DEB", "group": "iridium-33-debris", "lat": 7.303891288415297, "lon": 15.572451215827655, "alt_km": 734.596354586587, "timestamp": "2025-12-01T03:58:49.184651+00:00", "meta": {"OBJECT_NAME": "IRIDIUM 33 DEB", "OBJECT_ID": "1997-051AAB", "EPOCH": "2025-11-29T08:54:08.657856", "MEAN_MOTION": 14.50603208, "ECCENTRICITY": 0.002717, "INCLINATION": 86.3442, "RA_OF_ASC_NODE": 15.8845, "ARG_OF_PERICENTER": 130.9322, "MEAN_ANOMALY": 229.4241, "EPHEMERIS_TYPE": 0, "CLASSIFICATION_TYPE": "U", "NORAD_CAT_ID": 38474, "ELEMENT_SET_NO": 999, "REV_AT_EPOCH": 65124, "BSTAR": 0.00047302373, "MEAN_MOTION_DOT": 1.884e-05, "MEAN_MOTION_DDOT": 0, "GROUP": "iridium-33-debris"}, "tle": {"line1": "1 38474U 97051AAB 25333.37093354  .00001884  00000+0  47302-3 0  9997", "line2": "2 38474  86.3442  15.8845 0027170 130.9322 229.4241 14.50603208651244"}}, "geometry": {"type": "Point", "coordinates": [15.572451215827655, 7.303891288415297]}}, {"type": "Feature", "properties": {"norad_id": 39777, "name": "IRIDIUM 33 DEB", "group": "iridium-33-debris", "lat": -2.1708550781905047, "lon": 0.8093394772004666, "alt_km": 679.1761901680202, "timestamp": "2025-12-01T03:58:49.184661+00:00", "meta": {"OBJECT_NAME": "IRIDIUM 33 DEB", "OBJECT_ID": "1997-051AAJ", "EPOCH": "2025-11-30T07:20:57.734592", "MEAN_MOTION": 14.55995837, "ECCENTRICITY": 0.0059506, "INCLINATION": 85.9623, "RA_OF_ASC_NODE": 181.0729, "ARG_OF_PERICENTER": 229.3315, "MEAN_ANOMALY": 130.2713, "EPHEMERIS_TYPE": 0, "CLASSIFICATION_TYPE": "U", "NORAD_CAT_ID": 39777, "ELEMENT_SET_NO": 999, "REV_AT_EPOCH": 60004, "BSTAR": 0.0024963402, "MEAN_MOTION_DOT": 0.00011275, "MEAN_MOTION_DDOT": 0, "GROUP": "iridium-33-debris"}, "tle": {"line1": "1 39777U 97051AAJ 25334.30622378  .00011275  00000+0  24963-2 0  9994", "line2": "2 39777  85.9623 181.0729 0059506 229.3315 130.2713 14.55995837600049"}}, "geometry": {"type": "Point", "coordinates": [0.8093394772004666, -2.1708550781905047]}}]}